#aV2022  4  8  0  0  0.00000000     288 DD+AD WGS84 FIT  NGA
## 2204 432000.00000000   300.00000000 59677 0.0000000000000
+   32     1  2  3  4  5  6  7  8  9 10 11 12 13 14 15 16 17
+         18 19 20 21 22 23 24 25 26 27 28 29 30 31 32  0  0
+          0  0  0  0  0  0  0  0  0  0  0  0  0  0  0  0  0
+          0  0  0  0  0  0  0  0  0  0  0  0  0  0  0  0  0
+          0  0  0  0  0  0  0  0  0  0  0  0  0  0  0  0  0
++         2  2  2  2  2  2  2  2  2  2  2  2  2  2  2  2  2
++         2  2  2  2  2  2  2  2  2  2  2  2  2  2  2  0  0
++         0  0  0  0  0  0  0  0  0  0  0  0  0  0  0  0  0
++         0  0  0  0  0  0  0  0  0  0  0  0  0  0  0  0  0
++         0  0  0  0  0  0  0  0  0  0  0  0  0  0  0  0  0
%c cc cc ccc ccc cccc cccc cccc cccc ccccc ccccc ccccc ccccc
%c cc cc ccc ccc cccc cccc cccc cccc ccccc ccccc ccccc ccccc
%f  0.0000000  0.000000000  0.00000000000  0.000000000000000
%f  0.0000000  0.000000000  0.00000000000  0.000000000000000
%i    0    0    0    0      0      0      0      0         0
%i    0    0    0    0      0      0      0      0         0
/*      NGA, ST. LOUIS,MO.                                  
/*   EPHEMERIS COMPUTED FROM 2 DAYS OF DATA                 
/*   EPOCHA v7 SMOOTHER                                     
/*   G2139 IERS2010 SATIGS SATAPC                           
*  2022  4  8 19 35  0.00000000
P  1  13727.212910  -5222.098870  21813.879507    389.584681                    
V  1   4979.138202  27919.479819   3844.653426     -0.087981                    
P  2 -14285.701559 -16941.993115 -13876.383410   -652.993576                    
V  2  -2441.196733 -18778.204017  24444.366050     -0.002332                    
P  3  22359.216412 -11756.319874   7907.788121   -198.564124                    
V  3  -6275.645201   8389.370513  29932.129967     -0.155586                    
P  4  22535.264011  -1490.603385 -14036.036433   -177.500073                    
V  4  15734.045689   8592.470067  24250.133586      0.030214                    
P  5 -18355.864789  -1584.185308 -19347.983413    -77.597625                    
V  5  17037.933297 -17194.048526 -14731.745258     -0.013571                    
P  6  -5470.875924 -25898.597349  -1499.929359    259.712648                    
V  6   1683.575776  -2303.856191  32304.020104      0.134983                    
P  7   6831.445969 -20750.688059 -14358.396160    319.537772                    
V  7   5960.461042  18394.014674 -23610.161943      0.012920                    
P  8  25777.629915   5163.645838   4912.985353    -63.125827                    
V  8   5128.895783   4233.812377 -30787.393446     -0.015049                    
P  9  13936.079095 -10347.493807 -20176.517433   -344.972711                    
V  9  23766.016517   9278.544478  11664.046533      0.023799                    
P 10  -5997.964977  19851.206550  16571.567930   -372.768399                    
V 10 -17050.395847  12133.576759 -21172.690745     -0.125083                    
P 11 -12776.497905 -17664.297139 -15187.539085    -43.971758                    
V 11   -349.684334 -19363.619922  22807.706201      0.074805                    
P 12 -22911.898741   7563.027192  10690.035065   -197.352749                    
V 12   9938.824232 -10154.041841  27910.242134     -0.057880                    
P 13 -22931.637125 -13474.752400  -1862.426477    290.745458                    
V 13   3040.410831  -1127.795189 -31704.138283      0.065894                    
P 14   7730.539586 -20019.861247  15590.770138   -101.001190                    
V 14  17030.550793 -10449.276989 -21932.803260     -0.029367                    
P 15 -26106.852068  -2140.938170   4908.055623    -70.467206                    
V 15  -5781.004424  -4866.197763 -30025.858257      0.029422                    
P 16  15209.000887   6963.942898 -21006.052829   -489.618304                    
V 16 -20954.065498  15259.914910  -9794.469952     -0.039328                    
P 17  -3077.810995 -16642.117507  20888.689078    597.818992                    
V 17  23680.375759   9514.124714  11353.902838      0.049014                    
P 18  -7153.430507  20651.361477 -15023.029915    200.357876                    
V 18  -4808.565576 -18566.791008 -23341.729482     -0.093028                    
P 19 -10806.867551 -17656.760227  16491.276463    141.793823                    
V 19  19787.989333   8068.241549  21079.636896      0.049973                    
P 20 -11677.102508 -10367.024903 -21481.450310    515.918340                    
V 20  17882.279548 -20701.847424     36.235742     -0.001854                    
P 21  16567.927598   6569.499745  20541.496798    160.258143                    
V 21   5566.923989  23827.141038 -11856.252065      0.003595                    
P 22  13289.294486  17757.669648  15155.556996    240.264558                    
V 22 -17511.904733  -6083.880158  22935.123312      0.059789                    
P 23 -15362.859279  20346.543865   7257.116800    -13.433792                    
V 23  -8591.084048   4250.397608 -30158.963853     -0.029291                    
P 24 -15799.169496   1018.295622  21058.476074    259.109915                    
V 24  -6670.543986 -26682.934322  -3254.268681     -0.048075                    
P 25 -19542.797204  17738.295472  -1197.977611    309.353747                    
V 25  -2960.173673  -1643.012501  31804.854759      0.050338                    
P 26   5577.926143  15643.247498 -20758.729967    197.136994                    
V 26 -19897.071384  17243.674617   7988.135661      0.028453                    
P 27  22595.718932  12900.664543  -6505.156701    178.081467                    
V 27  -8088.939336   -832.383068 -30345.782906      0.097875                    
P 28   -329.939392 -17182.703876  20825.733763    373.032951                    
V 28  21115.226180 -13780.407528 -11094.561535     -0.027928                    
P 29 -15622.432326   7713.635604 -20116.653446   -500.839673                    
V 29 -22762.171912 -11204.151324  13355.741006     -0.043082                    
P 30   1183.308800 -25436.593946  -7010.205607   -522.840369                    
V 30   4993.715392   8415.381884 -29622.165174     -0.017983                    
P 31   6908.339140  25038.149428  -4313.358531   -172.559570                    
V 31  -2460.806695   5836.212638  31299.539941     -0.016608                    
P 32   6865.121579  16953.141289  19464.150595   -101.308102                    
V 32 -23357.611575  -7027.653112  14278.206436     -0.079113                    
EOF
